TIANMU-1 20             
1 58661U 23208B   26178.31265120  .00008480  00000+0  26914-3 0  9999
2 58661  97.4453 295.3107 0005584 289.5153  70.5486 15.32911289138971
TIANMU-1 21             
1 58662U 23208C   26178.28567663  .00010428  00000+0  30687-3 0  9990
2 58662  97.4512 298.0081 0005656 279.2165  80.8438 15.35250041139111
TIANMU-1 22             
1 58663U 23208D   26178.26792619  .00008314  00000+0  27846-3 0  9994
2 58663  97.4507 294.5474 0002383 318.6846  41.4214 15.31193675138873
TIANMU-1 15             
1 58700U 24004A   26178.32136856  .00005729  00000+0  22020-3 0  9999
2 58700  97.4664   4.5134 0005674 309.8429  50.2310 15.26810459137320
TIANMU-1 16             
1 58701U 24004B   26178.31190241  .00005872  00000+0  22538-3 0  9990
2 58701  97.4611   3.7306 0004835 329.3872  30.7084 15.26847771137320
TIANMU-1 17             
1 58702U 24004C   26178.29736339  .00005749  00000+0  22073-3 0  9999
2 58702  97.4640   4.2047 0004526 337.2259  22.8778 15.26846318137312
TIANMU-1 18             
1 58703U 24004D   26178.33801756  .00005678  00000+0  21861-3 0  9996
2 58703  97.4657   4.5062 0003590 314.5225  45.5720 15.26766131137326
INSAT-3DS               
1 58990U 24033A   26178.03834012 -.00000144  00000+0  00000+0 0  9996
2 58990   0.0617 100.5111 0001472 345.6436 284.8739  1.00270639 47168
METEOR-M2 4             
1 59051U 24039A   26178.31268351 -.00000007  00000+0  16349-4 0  9995
2 59051  98.7014 137.4836 0007824 133.8346 226.3480 14.22430485120700
GOES 19                 
1 60133U 24119A   26178.19003038 -.00000237  00000+0  00000+0 0  9999
2 60133   0.0076  91.7909 0000557  49.8217 126.9075  1.00271191  7066
MTG-S1                  
1 64723U 25143A   26178.16454249  .00000004  00000+0  00000+0 0  9998
2 64723   0.5954 341.0847 0002759 268.8982  84.0661  1.00271848  3515
METOP-SGA1              
1 65159U 25172A   26178.14661413  .00000040  00000+0  39351-4 0  9991
2 65159  98.6642 237.6630 0008090  24.8481 335.3084 14.19816576 45209
FENGYUN 3H              
1 65815U 25219A   26178.25865296  .00000039  00000+0  38943-4 0  9993
2 65815  98.6770 118.8320 0001506  70.2424 289.8915 14.19922116 38816
