OBJECT_NAME,OBJECT_ID,EPOCH,MEAN_MOTION,ECCENTRICITY,INCLINATION,RA_OF_ASC_NODE,ARG_OF_PERICENTER,MEAN_ANOMALY,EPHEMERIS_TYPE,CLASSIFICATION_TYPE,NORAD_CAT_ID,ELEMENT_SET_NO,REV_AT_EPOCH,BSTAR,MEAN_MOTION_DOT,MEAN_MOTION_DDOT
TIANMU-1 20,2023-208B,2026-06-27T07:30:13.063680,15.32911289,.00055843,97.4453,295.3107,289.5153,70.5486,0,U,58661,999,13897,.26914338E-3,.848E-4,0
TIANMU-1 21,2023-208C,2026-06-27T06:51:22.460832,15.35250041,.00056563,97.4512,298.0081,279.2165,80.8438,0,U,58662,999,13911,.30686558E-3,.10428E-3,0
TIANMU-1 22,2023-208D,2026-06-27T06:25:48.822816,15.31193675,.00023838,97.4507,294.5474,318.6846,41.4214,0,U,58663,999,13887,.27846104E-3,.8314E-4,0
TIANMU-1 15,2024-004A,2026-06-27T07:42:46.243584,15.26810459,.00056741,97.4664,4.5134,309.8429,50.2310,0,U,58700,999,13732,.22019849E-3,.5729E-4,0
TIANMU-1 16,2024-004B,2026-06-27T07:29:08.368224,15.26847771,.00048358,97.4611,3.7306,329.3872,30.7084,0,U,58701,999,13732,.22538248E-3,.5872E-4,0
TIANMU-1 17,2024-004C,2026-06-27T07:08:12.196896,15.26846318,.00045265,97.4640,4.2047,337.2259,22.8778,0,U,58702,999,13731,.22072795E-3,.5749E-4,0
TIANMU-1 18,2024-004D,2026-06-27T08:06:44.717184,15.26766131,.000359,97.4657,4.5062,314.5225,45.5720,0,U,58703,999,13732,.21861E-3,.5678E-4,0
INSAT-3DS,2024-033A,2026-06-27T00:55:12.586368,1.00270639,.00014728,0.0617,100.5111,345.6436,284.8739,0,U,58990,999,4716,0,-.144E-5,0
METEOR-M2 4,2024-039A,2026-06-27T07:30:15.855264,14.22430485,.00078242,98.7014,137.4836,133.8346,226.3480,0,U,59051,999,12070,.16348667E-4,-.7E-7,0
GOES 19,2024-119A,2026-06-27T04:33:38.624832,1.00271191,.00005572,0.0076,91.7909,49.8217,126.9075,0,U,60133,999,706,0,-.237E-5,0
MTG-S1,2025-143A,2026-06-27T03:56:56.471136,1.00271848,.00027599,0.5954,341.0847,268.8982,84.0661,0,U,64723,999,351,0,.4E-7,0
METOP-SGA1,2025-172A,2026-06-27T03:31:07.460832,14.19816576,.00080908,98.6642,237.6630,24.8481,335.3084,0,U,65159,999,4520,.39350992E-4,.4E-6,0
FENGYUN 3H,2025-219A,2026-06-27T06:12:27.615744,14.19922116,.00015069,98.6770,118.8320,70.2424,289.8915,0,U,65815,999,3881,.38942783E-4,.39E-6,0
